{
  "type": "FeatureCollection",
  "features": [
    {
      "type": "Feature",
      "properties": {
        "norad_id": 66892,
        "name": "STARLINK-35883",
        "group": "last-30-days",
        "lat": 24.27368953487502,
        "lon": 18.816094258245013,
        "alt_km": 411.70745092594825,
        "timestamp": "2025-12-27T19:21:57.544990+00:00",
        "meta_object_name": "STARLINK-35883",
        "meta_object_id": "2025-283Q",
        "meta_epoch": "2025-12-27T12:00:02.000160",
        "meta_mean_motion": 15.51827577,
        "meta_eccentricity": 0.0001268,
        "meta_inclination": 53.1599,
        "meta_ra_of_asc_node": 0.527,
        "meta_arg_of_pericenter": 71.7143,
        "meta_mean_anomaly": 44.5135,
        "meta_ephemeris_type": 0,
        "meta_classification_type": "U",
        "meta_norad_cat_id": 66892,
        "meta_element_set_no": 999,
        "meta_rev_at_epoch": 474,
        "meta_bstar": -0.033289,
        "meta_mean_motion_dot": -0.01797862,
        "meta_mean_motion_ddot": 0,
        "tle_line1": "1 66892U 25283Q   25361.50002315 -.01797862  00000+0 -33289-1 0  9991",
        "tle_line2": "2 66892  53.1599   0.5270 0001268  71.7143  44.5135 15.51827577  4744"
      },
      "geometry": {
        "type": "Point",
        "coordinates": [
          18.816094258245013,
          24.27368953487502
        ]
      }
    },
    {
      "type": "Feature",
      "properties": {
        "norad_id": 66893,
        "name": "STARLINK-36033",
        "group": "last-30-days",
        "lat": 25.711412907514184,
        "lon": 20.21291305960497,
        "alt_km": 411.4521918128694,
        "timestamp": "2025-12-27T19:21:57.545001+00:00",
        "meta_object_name": "STARLINK-36033",
        "meta_object_id": "2025-283R",
        "meta_epoch": "2025-12-27T12:00:02.000160",
        "meta_mean_motion": 15.51825656,
        "meta_eccentricity": 0.0001209,
        "meta_inclination": 53.1598,
        "meta_ra_of_asc_node": 0.5231,
        "meta_arg_of_pericenter": 65.3066,
        "meta_mean_anomaly": 52.8398,
        "meta_ephemeris_type": 0,
        "meta_classification_type": "U",
        "meta_norad_cat_id": 66893,
        "meta_element_set_no": 999,
        "meta_rev_at_epoch": 480,
        "meta_bstar": -0.033404,
        "meta_mean_motion_dot": -0.01803231,
        "meta_mean_motion_ddot": 0,
        "tle_line1": "1 66893U 25283R   25361.50002315 -.01803231  00000+0 -33404-1 0  9999",
        "tle_line2": "2 66893  53.1598   0.5231 0001209  65.3066  52.8398 15.51825656  4805"
      },
      "geometry": {
        "type": "Point",
        "coordinates": [
          20.21291305960497,
          25.711412907514184
        ]
      }
    },
    {
      "type": "Feature",
      "properties": {
        "norad_id": 66894,
        "name": "STARLINK-35718",
        "group": "last-30-days",
        "lat": 27.136192991205057,
        "lon": 21.645396010753693,
        "alt_km": 411.09617453129886,
        "timestamp": "2025-12-27T19:21:57.545014+00:00",
        "meta_object_name": "STARLINK-35718",
        "meta_object_id": "2025-283S",
        "meta_epoch": "2025-12-27T12:00:02.000160",
        "meta_mean_motion": 15.51826795,
        "meta_eccentricity": 0.0001401,
        "meta_inclination": 53.1596,
        "meta_ra_of_asc_node": 0.5199,
        "meta_arg_of_pericenter": 67.5964,
        "meta_mean_anomaly": 52.4649,
        "meta_ephemeris_type": 0,
        "meta_classification_type": "U",
        "meta_norad_cat_id": 66894,
        "meta_element_set_no": 999,
        "meta_rev_at_epoch": 480,
        "meta_bstar": -0.033293,
        "meta_mean_motion_dot": -0.0179808,
        "meta_mean_motion_ddot": 0,
        "tle_line1": "1 66894U 25283S   25361.50002315 -.01798080  00000+0 -33293-1 0  9991",
        "tle_line2": "2 66894  53.1596   0.5199 0001401  67.5964  52.4649 15.51826795  4802"
      },
      "geometry": {
        "type": "Point",
        "coordinates": [
          21.645396010753693,
          27.136192991205057
        ]
      }
    },
    {
      "type": "Feature",
      "properties": {
        "norad_id": 66895,
        "name": "STARLINK-35971",
        "group": "last-30-days",
        "lat": 29.941357539962297,
        "lon": 24.621609124280038,
        "alt_km": 410.7615152968119,
        "timestamp": "2025-12-27T19:21:57.545023+00:00",
        "meta_object_name": "STARLINK-35971",
        "meta_object_id": "2025-283T",
        "meta_epoch": "2025-12-27T12:00:02.000160",
        "meta_mean_motion": 15.51822507,
        "meta_eccentricity": 0.0001232,
        "meta_inclination": 53.1599,
        "meta_ra_of_asc_node": 0.5098,
        "meta_arg_of_pericenter": 74.986,
        "meta_mean_anomaly": 48.913,
        "meta_ephemeris_type": 0,
        "meta_classification_type": "U",
        "meta_norad_cat_id": 66895,
        "meta_element_set_no": 999,
        "meta_rev_at_epoch": 480,
        "meta_bstar": -0.033166,
        "meta_mean_motion_dot": -0.01791648,
        "meta_mean_motion_ddot": 0,
        "tle_line1": "1 66895U 25283T   25361.50002315 -.01791648  00000+0 -33166-1 0  9994",
        "tle_line2": "2 66895  53.1599   0.5098 0001232  74.9860  48.9130 15.51822507  4805"
      },
      "geometry": {
        "type": "Point",
        "coordinates": [
          24.621609124280038,
          29.941357539962297
        ]
      }
    },
    {
      "type": "Feature",
      "properties": {
        "norad_id": 66896,
        "name": "STARLINK-35791",
        "group": "last-30-days",
        "lat": 28.546578186850788,
        "lon": 23.11250905333862,
        "alt_km": 411.0489209289617,
        "timestamp": "2025-12-27T19:21:57.545034+00:00",
        "meta_object_name": "STARLINK-35791",
        "meta_object_id": "2025-283U",
        "meta_epoch": "2025-12-27T12:00:02.000160",
        "meta_mean_motion": 15.51820393,
        "meta_eccentricity": 0.000115,
        "meta_inclination": 53.1595,
        "meta_ra_of_asc_node": 0.5139,
        "meta_arg_of_pericenter": 76.6046,
        "meta_mean_anomaly": 45.3745,
        "meta_ephemeris_type": 0,
        "meta_classification_type": "U",
        "meta_norad_cat_id": 66896,
        "meta_element_set_no": 999,
        "meta_rev_at_epoch": 480,
        "meta_bstar": -0.03298,
        "meta_mean_motion_dot": -0.01782585,
        "meta_mean_motion_ddot": 0,
        "tle_line1": "1 66896U 25283U   25361.50002315 -.01782585  00000+0 -32980-1 0  9998",
        "tle_line2": "2 66896  53.1595   0.5139 0001150  76.6046  45.3745 15.51820393  4806"
      },
      "geometry": {
        "type": "Point",
        "coordinates": [
          23.11250905333862,
          28.546578186850788
        ]
      }
    },
    {
      "type": "Feature",
      "properties": {
        "norad_id": 66897,
        "name": "STARLINK-36079",
        "group": "last-30-days",
        "lat": 31.31813544358133,
        "lon": 26.174484431866972,
        "alt_km": 410.4304258949851,
        "timestamp": "2025-12-27T19:21:57.545043+00:00",
        "meta_object_name": "STARLINK-36079",
        "meta_object_id": "2025-283V",
        "meta_epoch": "2025-12-27T12:00:02.000160",
        "meta_mean_motion": 15.51822628,
        "meta_eccentricity": 0.000123,
        "meta_inclination": 53.1598,
        "meta_ra_of_asc_node": 0.5065,
        "meta_arg_of_pericenter": 63.3531,
        "meta_mean_anomaly": 62.46,
        "meta_ephemeris_type": 0,
        "meta_classification_type": "U",
        "meta_norad_cat_id": 66897,
        "meta_element_set_no": 999,
        "meta_rev_at_epoch": 480,
        "meta_bstar": -0.033088,
        "meta_mean_motion_dot": -0.01787908,
        "meta_mean_motion_ddot": 0,
        "tle_line1": "1 66897U 25283V   25361.50002315 -.01787908  00000+0 -33088-1 0  9993",
        "tle_line2": "2 66897  53.1598   0.5065 0001230  63.3531  62.4600 15.51822628  4802"
      },
      "geometry": {
        "type": "Point",
        "coordinates": [
          26.174484431866972,
          31.31813544358133
        ]
      }
    },
    {
      "type": "Feature",
      "properties": {
        "norad_id": 66898,
        "name": "STARLINK-36065",
        "group": "last-30-days",
        "lat": 32.674597335089594,
        "lon": 27.77091335071082,
        "alt_km": 410.2035389518296,
        "timestamp": "2025-12-27T19:21:57.545054+00:00",
        "meta_object_name": "STARLINK-36065",
        "meta_object_id": "2025-283W",
        "meta_epoch": "2025-12-27T12:00:02.000160",
        "meta_mean_motion": 15.51827294,
        "meta_eccentricity": 0.00013,
        "meta_inclination": 53.1598,
        "meta_ra_of_asc_node": 0.5022,
        "meta_arg_of_pericenter": 69.6662,
        "meta_mean_anomaly": 58.0637,
        "meta_ephemeris_type": 0,
        "meta_classification_type": "U",
        "meta_norad_cat_id": 66898,
        "meta_element_set_no": 999,
        "meta_rev_at_epoch": 480,
        "meta_bstar": -0.033283,
        "meta_mean_motion_dot": -0.01797571,
        "meta_mean_motion_ddot": 0,
        "tle_line1": "1 66898U 25283W   25361.50002315 -.01797571  00000+0 -33283-1 0  9998",
        "tle_line2": "2 66898  53.1598   0.5022 0001300  69.6662  58.0637 15.51827294  4803"
      },
      "geometry": {
        "type": "Point",
        "coordinates": [
          27.77091335071082,
          32.674597335089594
        ]
      }
    }
  ]
}